start=new Date('2023-01-22T00:00:00.000Z').valueOf();
sats=[{"CLASSIFICATION_TYPE":"U","SEMIMAJOR_AXIS":"6917.864","TLE_LINE2":"2 51779  53.2156  71.4851 0001406 101.4387 258.6763 15.08845415 51468","MEAN_ANOMALY":"258.6763","OBJECT_ID":"2022-017M","FILE":"3757309","ECCENTRICITY":"0.00014060","GP_ID":"223580938","COUNTRY_CODE":"US","APOAPSIS":"540.701","REF_FRAME":"TEME","LAUNCH_DATE":"2022-02-25","MEAN_ELEMENT_THEORY":"SGP4","CENTER_NAME":"EARTH","EPHEMERIS_TYPE":"0","OBJECT_TYPE":"PAYLOAD","ARG_OF_PERICENTER":"101.4387","PERIOD":"95.437","NORAD_CAT_ID":"51779","ELEMENT_SET_NO":"999","EPOCH":"2023-01-21T09:59:51.810432","SITE":"AFWTR","REV_AT_EPOCH":"5146","TLE_LINE1":"1 51779U 22017M   23021.41657188  .00022666  00000-0  14374-2 0  9992","INCLINATION":"53.2156","RCS_SIZE":"LARGE","MEAN_MOTION_DOT":"0.00022666","DECAY_DATE":null,"BSTAR":"0.00143740000000","MEAN_MOTION":"15.08845415","RA_OF_ASC_NODE":"71.4851","TIME_SYSTEM":"UTC","PERIAPSIS":"538.756","MEAN_MOTION_DDOT":"0.0000000000000","OBJECT_NAME":"STARLINK-3611"},{"OBJECT_TYPE":"PAYLOAD","MEAN_ELEMENT_THEORY":"SGP4","CENTER_NAME":"EARTH","EPHEMERIS_TYPE":"0","APOAPSIS":"540.644","LAUNCH_DATE":"2022-02-25","REF_FRAME":"TEME","GP_ID":"223569617","COUNTRY_CODE":"US","ECCENTRICITY":"0.00013120","FILE":"3756804","TLE_LINE2":"2 51780  53.2153  72.1245 0001312  69.5420 290.5713 15.08843053 51499","OBJECT_ID":"2022-017N","MEAN_ANOMALY":"290.5713","SEMIMAJOR_AXIS":"6917.871","CLASSIFICATION_TYPE":"U","MEAN_MOTION_DDOT":"0.0000000000000","OBJECT_NAME":"STARLINK-3617","RA_OF_ASC_NODE":"72.1245","TIME_SYSTEM":"UTC","PERIAPSIS":"538.828","MEAN_MOTION":"15.08843053","BSTAR":"0.00162770000000","MEAN_MOTION_DOT":"0.00025714","DECAY_DATE":null,"INCLINATION":"53.2153","RCS_SIZE":"LARGE","TLE_LINE1":"1 51780U 22017N   23021.27400641  .00025714  00000-0  16277-2 0  9999","SITE":"AFWTR","REV_AT_EPOCH":"5149","EPOCH":"2023-01-21T06:34:34.153824","ELEMENT_SET_NO":"999","NORAD_CAT_ID":"51780","PERIOD":"95.437","ARG_OF_PERICENTER":"69.5420"},{"COUNTRY_CODE":"US","GP_ID":"223569614","APOAPSIS":"540.986","LAUNCH_DATE":"2022-02-25","REF_FRAME":"TEME","MEAN_ELEMENT_THEORY":"SGP4","CENTER_NAME":"EARTH","EPHEMERIS_TYPE":"0","OBJECT_TYPE":"PAYLOAD","CLASSIFICATION_TYPE":"U","SEMIMAJOR_AXIS":"6917.876","TLE_LINE2":"2 51781  53.2158  72.6892 0001800  72.7077 287.4112 15.08841588 51437","OBJECT_ID":"2022-017P","MEAN_ANOMALY":"287.4112","FILE":"3756804","ECCENTRICITY":"0.00018000","TLE_LINE1":"1 51781U 22017P   23021.14793216  .00004286  00000-0  28720-3 0  9997","INCLINATION":"53.2158","RCS_SIZE":"LARGE","MEAN_MOTION_DOT":"0.00004286","DECAY_DATE":null,"BSTAR":"0.00028720000000","MEAN_MOTION":"15.08841588","RA_OF_ASC_NODE":"72.6892","TIME_SYSTEM":"UTC","PERIAPSIS":"538.495","MEAN_MOTION_DDOT":"0.0000000000000","OBJECT_NAME":"STARLINK-3580","ARG_OF_PERICENTER":"72.7077","PERIOD":"95.437","NORAD_CAT_ID":"51781","ELEMENT_SET_NO":"999","EPOCH":"2023-01-21T03:33:01.338624","SITE":"AFWTR","REV_AT_EPOCH":"5143"},{"PERIAPSIS":"538.363","RA_OF_ASC_NODE":"81.4029","TIME_SYSTEM":"UTC","OBJECT_NAME":"STARLINK-3616","MEAN_MOTION_DDOT":"0.0000000000000","BSTAR":"0.00160580000000","MEAN_MOTION":"15.08858247","RCS_SIZE":"LARGE","INCLINATION":"53.2174","DECAY_DATE":null,"MEAN_MOTION_DOT":"0.00025374","TLE_LINE1":"1 51782U 22017Q   23021.43036946  .00025374  00000-0  16058-2 0  9991","EPOCH":"2023-01-21T10:19:43.921344","REV_AT_EPOCH":"5132","SITE":"AFWTR","ELEMENT_SET_NO":"999","NORAD_CAT_ID":"51782","ARG_OF_PERICENTER":"100.8299","PERIOD":"95.436","OBJECT_TYPE":"PAYLOAD","LAUNCH_DATE":"2022-02-25","REF_FRAME":"TEME","APOAPSIS":"541.016","CENTER_NAME":"EARTH","EPHEMERIS_TYPE":"0","MEAN_ELEMENT_THEORY":"SGP4","COUNTRY_CODE":"US","GP_ID":"223574994","ECCENTRICITY":"0.00019180","FILE":"3757049","SEMIMAJOR_AXIS":"6917.825","OBJECT_ID":"2022-017Q","MEAN_ANOMALY":"259.2909","TLE_LINE2":"2 51782  53.2174  81.4029 0001918 100.8299 259.2909 15.08858247 51324","CLASSIFICATION_TYPE":"U"},{"OBJECT_NAME":"STARLINK-3628","MEAN_MOTION_DDOT":"0.0000000000000","PERIAPSIS":"538.541","TIME_SYSTEM":"UTC","RA_OF_ASC_NODE":"72.1056","BSTAR":"0.00112530000000","MEAN_MOTION":"15.08848584","DECAY_DATE":null,"MEAN_MOTION_DOT":"0.00017671","RCS_SIZE":"LARGE","INCLINATION":"53.2171","TLE_LINE1":"1 51783U 22017R   23021.27673182  .00017671  00000-0  11253-2 0  9996","REV_AT_EPOCH":"5144","SITE":"AFWTR","EPOCH":"2023-01-21T06:38:29.629248","NORAD_CAT_ID":"51783","ELEMENT_SET_NO":"999","PERIOD":"95.437","ARG_OF_PERICENTER":"97.2029","OBJECT_TYPE":"PAYLOAD","EPHEMERIS_TYPE":"0","CENTER_NAME":"EARTH","MEAN_ELEMENT_THEORY":"SGP4","LAUNCH_DATE":"2022-02-25","REF_FRAME":"TEME","APOAPSIS":"540.897","GP_ID":"223569363","COUNTRY_CODE":"US","ECCENTRICITY":"0.00017030","FILE":"3756805","MEAN_ANOMALY":"262.9157","OBJECT_ID":"2022-017R","TLE_LINE2":"2 51783  53.2171  72.1056 0001703  97.2029 262.9157 15.08848584 51443","SEMIMAJOR_AXIS":"6917.854","CLASSIFICATION_TYPE":"U"},{"ECCENTRICITY":"0.00013330","FILE":"3757309","MEAN_ANOMALY":"263.1182","OBJECT_ID":"2022-017S","TLE_LINE2":"2 51784  53.2180  80.8375 0001333  96.9961 263.1182 15.08842229 51355","SEMIMAJOR_AXIS":"6917.874","CLASSIFICATION_TYPE":"U","OBJECT_TYPE":"PAYLOAD","CENTER_NAME":"EARTH","EPHEMERIS_TYPE":"0","MEAN_ELEMENT_THEORY":"SGP4","LAUNCH_DATE":"2022-02-25","REF_FRAME":"TEME","APOAPSIS":"540.661","GP_ID":"223581122","COUNTRY_CODE":"US","REV_AT_EPOCH":"5135","SITE":"AFWTR","EPOCH":"2023-01-21T13:25:12.302688","NORAD_CAT_ID":"51784","ELEMENT_SET_NO":"999","PERIOD":"95.437","ARG_OF_PERICENTER":"96.9961","OBJECT_NAME":"STARLINK-3632","MEAN_MOTION_DDOT":"0.0000000000000","PERIAPSIS":"538.816","RA_OF_ASC_NODE":"80.8375","TIME_SYSTEM":"UTC","BSTAR":"0.00003087900000","MEAN_MOTION":"15.08842229","DECAY_DATE":null,"MEAN_MOTION_DOT":"0.00000204","RCS_SIZE":"LARGE","INCLINATION":"53.2180","TLE_LINE1":"1 51784U 22017S   23021.55917017  .00000204  00000-0  30879-4 0  9997"},{"MEAN_ELEMENT_THEORY":"SGP4","EPHEMERIS_TYPE":"0","CENTER_NAME":"EARTH","APOAPSIS":"540.820","REF_FRAME":"TEME","LAUNCH_DATE":"2022-02-25","OBJECT_TYPE":"PAYLOAD","GP_ID":"223581133","COUNTRY_CODE":"US","FILE":"3757310","ECCENTRICITY":"0.00015850","CLASSIFICATION_TYPE":"U","TLE_LINE2":"2 51785  53.2150  71.2370 0001585  88.9958 271.1216 15.08847298 51525","MEAN_ANOMALY":"271.1216","OBJECT_ID":"2022-017T","SEMIMAJOR_AXIS":"6917.858","BSTAR":"-0.00007806000000","MEAN_MOTION":"15.08847298","MEAN_MOTION_DDOT":"0.0000000000000","OBJECT_NAME":"STARLINK-3646","TIME_SYSTEM":"UTC","RA_OF_ASC_NODE":"71.2370","PERIAPSIS":"538.627","TLE_LINE1":"1 51785U 22017T   23021.47177273 -.00001530  00000-0 -78060-4 0  9990","MEAN_MOTION_DOT":"-0.00001530","DECAY_DATE":null,"INCLINATION":"53.2150","RCS_SIZE":"LARGE","SITE":"AFWTR","REV_AT_EPOCH":"5152","EPOCH":"2023-01-21T11:19:21.163872","PERIOD":"95.437","ARG_OF_PERICENTER":"88.9958","ELEMENT_SET_NO":"999","NORAD_CAT_ID":"51785"},{"FILE":"3757049","ECCENTRICITY":"0.00010210","CLASSIFICATION_TYPE":"U","SEMIMAJOR_AXIS":"6917.842","TLE_LINE2":"2 51786  53.2158  81.4573 0001021  82.0816 278.0292 15.08852437 51379","OBJECT_ID":"2022-017U","MEAN_ANOMALY":"278.0292","APOAPSIS":"540.414","LAUNCH_DATE":"2022-02-25","REF_FRAME":"TEME","MEAN_ELEMENT_THEORY":"SGP4","EPHEMERIS_TYPE":"0","CENTER_NAME":"EARTH","OBJECT_TYPE":"PAYLOAD","GP_ID":"223574995","COUNTRY_CODE":"US","EPOCH":"2023-01-21T10:03:50.252832","SITE":"AFWTR","REV_AT_EPOCH":"5137","ARG_OF_PERICENTER":"82.0816","PERIOD":"95.437","ELEMENT_SET_NO":"999","NORAD_CAT_ID":"51786","BSTAR":"0.00171280000000","MEAN_MOTION":"15.08852437","TIME_SYSTEM":"UTC","RA_OF_ASC_NODE":"81.4573","PERIAPSIS":"539.001","MEAN_MOTION_DDOT":"0.0000000000000","OBJECT_NAME":"STARLINK-3638","TLE_LINE1":"1 51786U 22017U   23021.41933163  .00027086  00000-0  17128-2 0  9991","INCLINATION":"53.2158","RCS_SIZE":"LARGE","MEAN_MOTION_DOT":"0.00027086","DECAY_DATE":null},{"RCS_SIZE":"LARGE","INCLINATION":"53.2161","DECAY_DATE":null,"MEAN_MOTION_DOT":"0.00011108","TLE_LINE1":"1 51787U 22017V   23020.90413297  .00011108  00000-0  71498-3 0  9995","PERIAPSIS":"538.207","TIME_SYSTEM":"UTC","RA_OF_ASC_NODE":"83.7839","OBJECT_NAME":"STARLINK-3619","MEAN_MOTION_DDOT":"0.0000000000000","BSTAR":"0.00071498000000","MEAN_MOTION":"15.08837412","NORAD_CAT_ID":"51787","ELEMENT_SET_NO":"999","ARG_OF_PERICENTER":"74.5029","PERIOD":"95.438","EPOCH":"2023-01-20T21:41:57.088608","REV_AT_EPOCH":"5124","SITE":"AFWTR","COUNTRY_CODE":"US","GP_ID":"223556941","OBJECT_TYPE":"PAYLOAD","REF_FRAME":"TEME","LAUNCH_DATE":"2022-02-25","APOAPSIS":"541.299","CENTER_NAME":"EARTH","EPHEMERIS_TYPE":"0","MEAN_ELEMENT_THEORY":"SGP4","SEMIMAJOR_AXIS":"6917.888","MEAN_ANOMALY":"285.6210","OBJECT_ID":"2022-017V","TLE_LINE2":"2 51787  53.2161  83.7839 0002235  74.5029 285.6210 15.08837412 51240","CLASSIFICATION_TYPE":"U","ECCENTRICITY":"0.00022350","FILE":"3756267"},{"OBJECT_TYPE":"PAYLOAD","EPHEMERIS_TYPE":"0","CENTER_NAME":"EARTH","MEAN_ELEMENT_THEORY":"SGP4","LAUNCH_DATE":"2022-02-25","REF_FRAME":"TEME","APOAPSIS":"540.582","GP_ID":"223569367","COUNTRY_CODE":"US","ECCENTRICITY":"0.00012130","FILE":"3756813","MEAN_ANOMALY":"255.6721","OBJECT_ID":"2022-017W","TLE_LINE2":"2 51788  53.2149  82.1163 0001213 104.4405 255.6721 15.08840898 51309","SEMIMAJOR_AXIS":"6917.878","CLASSIFICATION_TYPE":"U","OBJECT_NAME":"STARLINK-3641","MEAN_MOTION_DDOT":"0.0000000000000","PERIAPSIS":"538.904","TIME_SYSTEM":"UTC","RA_OF_ASC_NODE":"82.1163","MEAN_MOTION":"15.08840898","BSTAR":"0.00070926000000","DECAY_DATE":null,"MEAN_MOTION_DOT":"0.00011018","RCS_SIZE":"LARGE","INCLINATION":"53.2149","TLE_LINE1":"1 51788U 22017W   23021.27581116  .00011018  00000-0  70926-3 0  9998","REV_AT_EPOCH":"5130","SITE":"AFWTR","EPOCH":"2023-01-21T06:37:10.084224","NORAD_CAT_ID":"51788","ELEMENT_SET_NO":"999","PERIOD":"95.437","ARG_OF_PERICENTER":"104.4405"}];
